METHANESAT              
1 59101U 24043D   26079.28154028  .00002275  00000+0  19949-3 0  9993
2 59101  97.8288 209.9859 0009686 309.3189  50.7174 14.97645013111348
GOSAT-GW (IBUKI GW)     
1 64694U 25141A   26065.03170321  .00001373  00000+0  25032-3 0  9996
2 64694  98.0504   4.0681 0001432  83.7436 276.3932 14.67569112 36718
GHGSAT-C1               
1 46278U 20061G   26079.28116839  .00022883  00000+0  23220-3 0  9992
2 46278  97.2147 161.8867 0001382  61.3949 298.7450 15.65228700309544
GHGSAT-C12              
1 64529U 25135B   26079.30886790  .00003221  00000+0  15427-3 0  9996
2 64529  97.4633 195.0012 0006392 118.2305 241.9576 15.19645238 41326
GHGSAT-C13              
1 64548U 25135W   26079.28816458  .00003034  00000+0  14274-3 0  9999
2 64548  97.4662 195.4193 0002609  80.9637 279.1894 15.20327312 41343
GHGSAT-C2               
1 47509U 21006DA  26079.10174077  .00006031  00000+0  17054-3 0  9994
2 47509  97.2266 127.8992 0006824 120.7991 239.3926 15.36666809286163
GHGSAT-C3               
1 52737U 22057F   26079.31588634  .00006008  00000+0  19031-3 0  9992
2 52737  97.6452 221.7929 0007208  82.1078 278.0982 15.33111651211911
GHGSAT-C4               
1 52746U 22057Q   26079.27031771  .00007478  00000+0  23626-3 0  9999
2 52746  97.6378 220.6676 0007296  69.5776 290.6248 15.33102004211913
GHGSAT-C5               
1 52744U 22057N   26079.22298273  .00005896  00000+0  18691-3 0  9992
2 52744  97.6543 223.1673 0008216  78.5380 281.6784 15.33087973211905
GHGSAT-C6               
1 56204U 23054AC  26079.25821206  .00014189  00000+0  25231-3 0  9999
2 56204  97.3123 347.7187 0007754  22.4583 337.7007 15.50243005164663
GHGSAT-C7               
1 56209U 23054AH  26079.23823814  .00008554  00000+0  16588-3 0  9993
2 56209  97.3072 346.5819 0008243  15.3067 344.8432 15.47892817164626
GHGSAT-C8               
1 56186U 23054J   26079.22933557  .00010483  00000+0  18689-3 0  9990
2 56186  97.3079 347.0737 0006665  48.0465 312.1353 15.50257165164640
SENTINEL-5P             
1 42969U 17064A   26079.24804688  .00000054  00000+0  46592-4 0  9990
2 42969  98.7898  22.0253 0001153  92.5221 267.6087 14.19501710436947
ENMAP                   
1 52159U 22033C   26079.22866481 -.00000022  00000+0  41338-5 0  9991
2 52159  97.9788 162.7418 0001197 102.9754 257.1588 14.74978241213545
PRISMA                  
1 44072U 19015A   26079.25271455  .00000647  00000+0  84785-4 0  9990
2 44072  97.8703 155.3292 0001511  86.8831 273.2556 14.83649044378867
SENTINEL-2A             
1 40697U 15028A   26079.26370495 -.00000037  00000+0  23709-5 0  9998
2 40697  98.5642 155.4017 0001278  97.6877 262.4451 14.30816508561010
SENTINEL-2B             
1 42063U 17013A   26079.25641226  .00000063  00000+0  40738-4 0  9993
2 42063  98.5695 155.2961 0001164  93.0153 267.1163 14.30811101471920
SENTINEL-2C             
1 60989U 24157A   26079.22152607  .00000102  00000+0  55488-4 0  9996
2 60989  98.5671 155.2832 0000962 112.7762 247.3522 14.30817874 80263
LANDSAT 8               
1 39084U 13008A   26079.23543826  .00000300  00000+0  76661-4 0  9995
2 39084  98.1899 150.7871 0001217  91.3469 268.7869 14.57119800684945
LANDSAT 9               
1 49260U 21088A   26079.20120088  .00000320  00000+0  81091-4 0  9992
2 49260  98.1915 150.8168 0001200  92.0933 268.0403 14.57107886238041
TANAGER-1               
1 60507U 24149AR  26078.22294546  .00017538  00000+0  39186-3 0  9998
2 60507  97.3772 171.7322 0007657 222.2858 137.7800 15.43551490 89158
